GLOBALSTAR M024 [-]     
1 25883U 99043A   24035.49376391 -.00000066  00000+0 -38226-4 0  9995
2 25883  52.0017  65.8340 0001130  10.5827 168.4635 11.10153554 59471
GLOBALSTAR M027 [-]     
1 25884U 99043B   24035.49999306 -.00000030  00000+0  12841-2 0  9996
2 25884  52.0209 129.6780 0020719 264.5163  95.3266 11.04367218 86149
GLOBALSTAR M054 [-]     
1 25885U 99043C   24035.24120264  .00000003  00000+0  18839-2 0  9991
2 25885  52.0176 341.2838 0004808  36.7939 111.9888 11.39204831 62182
GLOBALSTAR M053 [-]     
1 25886U 99043D   24035.03916333 -.00000043  00000+0  74740-3 0  9998
2 25886  51.9959 261.1750 0003012 333.2234 176.7400 11.27653626 63134
GLOBALSTAR M058 [-]     
1 25907U 99049A   24035.19933527 -.00000078  00000+0  86387-4 0  9998
2 25907  51.9974   1.5730 0002609  34.8051 325.2954 11.93173370481978
GLOBALSTAR M050 [-]     
1 25908U 99049B   24035.47846439 -.00000112  00000+0 -27310-3 0  9995
2 25908  52.0003  45.7606 0009253 118.6470  48.0192 12.07429213 87943
GLOBALSTAR M055 [-]     
1 25910U 99049D   24035.30920937 -.00000082  00000+0  10562-3 0  9992
2 25910  52.0051 347.5418 0006798 172.9310 187.1638 12.29394379106928
